{
  "type": "FeatureCollection",
  "name": "Tumbas2",
  "crs": {
    "type": "name",
    "properties": {
      "name": "urn:ogc:def:crs:OGC:1.3:CRS84"
    }
  },
  "features": [
    {
      "type": "Feature",
      "properties": {
        "fid": 1,
        "seccion": "A",
        "lote": "3252",
        "propietario": "LUIS MIGUEL DE LA CRUZ GONZALEZ",
        "difunto": "MIGUEL ANGEL DE LA CRUZ MARTINEZ",
        "fechaDifuncion": "2019-01-04",
        "telefono": "9212392318",
        "direccionTitular": "C TIBURON 25 FRACC PUERTO ESMERALDA EN CTZ, VER ",
        "vigenciaPerpetuidad": "2033-01-26",
        "folio": "251",
        "recibo": "E 046496",
        "tipoTramite": "PERPETUIDAD ENE26",
        "observacion": "BOVEDA FORRADA DE AZULEJO COLOR AZUL CON NICHO, PAR DE FLOREROS Y LIBRO"
      },
      "geometry": {
        "type": "Polygon",
        "coordinates": [
          [
            [
              -94.52740511860438,
              18.140086585247573
            ],
            [
              -94.52739758963807,
              18.140091892551677
            ],
            [
              -94.52738308712104,
              18.140074489531237
            ],
            [
              -94.5273897521076,
              18.14006912051429
            ],
            [
              -94.52740511860438,
              18.140086585247573
            ]
          ]
        ]
      }
    },
    {
      "type": "Feature",
      "properties": {
        "fid": 2,
        "seccion": "A",
        "lote": "3254",
        "propietario": "GERARDO JUAREZ CRUZ",
        "difunto": "FRANCISCA CRUZ AGUILAR",
        "fechaDifuncion": "2019-01-07",
        "telefono": "9211384949",
        "direccionTitular": "AV GAVIOTAS 121 COL SANTA ISABEL III COATZA.,VER",
        "vigenciaPerpetuidad": "2033-03-21",
        "folio": "925",
        "recibo": null,
        "tipoTramite": "PERPETUIDAD ABR26",
        "observacion": "BOVEDA CON MONUMENTO DE AZULEJO COLOR AZUL"
      },
      "geometry": {
        "type": "Polygon",
        "coordinates": [
          [
            [
              -94.52737315243658,
              18.14008190276801
            ],
            [
              -94.5273659805591,
              18.14008707741379
            ],
            [
              -94.52738086901363,
              18.140104326233054
            ],
            [
              -94.52738749619157,
              18.140099605503572
            ],
            [
              -94.52737315243658,
              18.14008190276801
            ]
          ]
        ]
      }
    }
  ]
}